STARLINK-35918          
1 66643U 25271AC  25358.91670139  .00026116  00000+0  66113-3 0  9996
2 66643  53.1595 129.2386 0001163  81.6065 166.7844 15.39597499  5960
STARLINK-35938          
1 66644U 25271AD  25358.91670139  .00035433  00000+0  89262-3 0  9999
2 66644  53.1598 129.0883 0000936  74.6438 249.1677 15.39588608  5936
SHENZHOU-22             
1 66645U 25272A   25358.88276676  .00016629  00000+0  20600-3 0  9992
2 66645  41.4683 302.9604 0008234 137.9360 222.2112 15.59651715265836
COSMOS 2597 (RODNIK-S *)
1 66647U 25273A   25358.87957101  .00000047  00000+0  26895-3 0  9992
2 66647  82.4994 278.9111 0007596 257.5295 102.4934 12.41952272  3649
COSMOS 2598 (RODNIK-S *)
1 66648U 25273B   25358.85909318  .00000035  00000+0  18088-3 0  9990
2 66648  82.5032 278.9102 0008189 207.9473 152.1168 12.43233613  3644
COSMOS 2599 (RODNIK-S *)
1 66649U 25273C   25358.89157676  .00000066  00000+0  41651-3 0  9993
2 66649  82.5051 278.9384 0006346 245.5289 114.5129 12.41152338  3645
BEE-1000                
1 66650U 25274A   25358.75974334  .00001685  00000+0  17291-3 0  9990
2 66650  97.7405 285.7275 0011078 207.2837 152.7801 14.91700346  4192
2025-274B               
1 66651U 25274B   25358.75754192  .00004462  00000+0  44643-3 0  9996
2 66651  97.7402 285.7287 0011275 205.3112 154.7556 14.91882625  4197
2025-274C               
1 66652U 25274C   25358.75534514  .00003566  00000+0  35722-3 0  9993
2 66652  97.7406 285.7332 0010823 212.2787 147.7770 14.91968899  4194
2025-274D               
1 66653U 25274D   25358.68820744  .00002808  00000+0  28251-3 0  9996
2 66653  97.7404 285.6669 0011797 209.0620 150.9944 14.91960276  4185
JACK E                  
1 66654U 25274E   25358.75201650  .00003233  00000+0  32281-3 0  9995
2 66654  97.7407 285.7379 0012343 210.6916 149.3582 14.92145047  4195
2025-274F               
1 66655U 25274F   25358.28927403  .00000139  00000+0  19529-4 0  9998
2 66655  97.7344 285.2601 0004433 344.9357  15.1729 14.91193300  4120
2025-274G               
1 66656U 25274G   25358.74847567  .00003438  00000+0  34128-3 0  9998
2 66656  97.7403 285.7417 0012912 212.4848 147.5578 14.92341607  4197
SPIRONE                 
1 66657U 25274H   25358.74510950  .00003352  00000+0  33156-3 0  9997
2 66657  97.7400 285.7453 0010927 230.1139 129.9120 14.92519691  4196
2025-274J               
1 66658U 25274J   25358.67482801  .00004604  00000+0  45122-3 0  9990
2 66658  97.7400 285.6841 0011454 233.7745 126.2416 14.92696275  4186
JACK K                  
1 66659U 25274K   25358.33623131  .00002953  00000+0  29014-3 0  9994
2 66659  97.7402 285.3593 0012188 236.9744 123.0305 14.92869398  4134
K-HERO                  
1 66660U 25274L   25358.80258788  .00002966  00000+0  29021-3 0  9992
2 66660  97.7403 285.8259 0012823 235.9448 124.0555 14.93023583  4202
SNUGLITE-III            
1 66661U 25274M   25358.66586719  .00002581  00000+0  25241-3 0  9998
2 66661  97.7401 285.6966 0013443 238.0039 121.9874 14.93154864  4187
2025-274N               
1 66662U 25274N   25358.66480492  .00002737  00000+0  26691-3 0  9993
2 66662  97.7404 285.6984 0013880 237.7389 122.2486 14.93210948  4189
SOYUZ-MS 28             
1 66664U 25275A   25358.72926446  .00013665  00000+0  24881-3 0  9998
2 66664  51.6317  83.1022 0003193 296.2044  63.8616 15.49788781  1281
FORMOSAT-8A             
1 66666U 25276A   25358.90000831  .00004948  00000+0  39878-3 0  9998
2 66666  97.6575  70.6625 0004008 186.9424 173.1745 15.00357742  3918
PELICAN-5               
1 66667U 25276B   25358.86830199  .00008497  00000+0  42561-3 0  9998
2 66667  97.4411  70.4328 0002231 205.0757 155.0369 15.17617636  3967
TRANSPORTER-15C         
1 66668U 25276C   25356.70551735  .02259996  00000+0  88401-1 0  9991
2 66668  97.4316  68.2383 0026797 290.2810  69.5546 15.21727190  3639
TRANSPORTER-15D         
1 66669U 25276D   25355.11062744  .00101698  00000+0  27830-2 0  9996
2 66669  97.4314  66.7079 0074819 232.3102 127.1341 15.34134881  3392
HUNITY                  
1 66670U 25276E   25357.56437036 -.00108931  00000+0 -59588-2 0  9993
2 66670  97.4308  69.0882 0004515  49.7951 310.3676 15.14778724  3769
TRANSPORTER-15F         
1 66671U 25276F   25358.88016627 -.00007935  00000+0 -39771-3 0  9994
2 66671  97.4418  70.4181 0002431 236.8665 123.2335 15.17112389  3963
TRANSPORTER-15G         
1 66672U 25276G   25358.88561799  .00009175  00000+0  47202-3 0  9994
2 66672  97.4389  70.4021 0005482 241.9188 118.1492 15.16647940  3962
TRANSPORTER-15H         
1 66673U 25276H   25358.88074315  .01286251  00000+0  56292-1 0  9998
2 66673  97.4360  70.3973 0010894 293.3865  66.6223 15.18860763  3964
TRANSPORTER-15J         
1 66674U 25276J   25355.45366295 -.00494676  00000+0 -28180-1 0  9998
2 66674  97.4372  67.0325 0006500 333.1103  26.9792 15.15191397  3449
TRANSPORTER-15K         
1 66675U 25276K   25358.81532164  .00012419  00000+0  63013-3 0  9997
2 66675  97.4383  70.3408 0005121 250.5048 109.5633 15.17053780  3952
TRANSPORTER-15L         
1 66676U 25276L   25358.09234068 -.00063262  00000+0 -33341-2 0  9994
2 66676  97.4383  69.6259 0003316 196.3095 163.8032 15.15865945  3847
TRANSPORTER-15M         
1 66677U 25276M   25357.94636462  .01686367  00000+0  64784-1 0  9992
2 66677  97.4375  69.5111 0025304 251.3667 108.4821 15.22843354  3820
TRANSPORTER-15N         
1 66678U 25276N   25357.56319238  .00406502  00000+0  19321-1 0  9997
2 66678  97.4431  69.1192 0008558 326.8045  33.2650 15.17256270  3766
TRANSPORTER-15P         
1 66679U 25276P   25357.49859586  .00004592  00000+0  23774-3 0  9997
2 66679  97.4364  69.0361 0004655 254.9707 105.1011 15.16695549  3753
TRANSPORTER-15Q         
1 66680U 25276Q   25358.81645225  .00008127  00000+0  41621-3 0  9998
2 66680  97.4405  70.3465 0004624 239.3295 120.7483 15.16847861  3950
TRANSPORTER-15R         
1 66681U 25276R   25358.87651665  .00018203  00000+0  90936-3 0  9999
2 66681  97.4332  70.3946 0004955 266.5765  93.4902 15.17513674  3961
TRANSPORTER-15S         
1 66682U 25276S   25357.69201906  .00083292  00000+0  41403-2 0  9992
2 66682  97.4445  69.2620 0007024 262.2032  97.8405 15.17268093  3781
TRANSPORTER-15T         
1 66683U 25276T   25358.88020195  .00010326  00000+0  52462-3 0  9990
2 66683  97.4445  70.4270 0004832 234.9779 125.1001 15.17056279  3963
TRANSPORTER-15U         
1 66684U 25276U   25358.81070700  .00011694  00000+0  58842-3 0  9998
2 66684  97.4471  70.3746 0004611 231.3987 128.6834 15.17364298  3951
TRANSPORTER-15V         
1 66685U 25276V   25358.87514792  .00015998  00000+0  79964-3 0  9998
2 66685  97.4416  70.4233 0004049 254.4230 105.6557 15.17526552  3966
TRANSPORTER-15W         
1 66686U 25276W   25358.67972055  .00060911  00000+0  29615-2 0  9999
2 66686  97.4405  70.2223 0018183 243.6801 116.2566 15.18035485  3936
TRANSPORTER-15X         
1 66687U 25276X   25358.88517858  .00013627  00000+0  69659-3 0  9994
2 66687  97.4384  70.3985 0008083  47.4847 312.7068 15.16753964  3967
TRANSPORTER-15Y         
1 66688U 25276Y   25358.81244701  .00009355  00000+0  47505-3 0  9991
2 66688  97.4429  70.3590 0003745 240.3702 119.7158 15.17106939  3953
TRANSPORTER-15Z         
1 66689U 25276Z   25356.89428733  .02294864  00000+0  86131-1 0  9996
2 66689  97.4409  68.4858 0027227 260.8557  98.9599 15.23073772  3663
TRANSPORTER-15AA        
1 66690U 25276AA  25358.81253758  .00010311  00000+0  52351-3 0  9995
2 66690  97.4390  70.3468 0003680 239.3102 120.7770 15.17084124  3950
TRANSPORTER-15AB        
1 66691U 25276AB  25358.81021648  .00011153  00000+0  56188-3 0  9994
2 66691  97.4415  70.3575 0003802 240.4824 119.6030 15.17335763  3952
TRANSPORTER-15AC        
1 66692U 25276AC  25358.54319779  .00006996  00000+0  35305-3 0  9997
2 66692  97.4417  70.1064 0001771 257.1546 102.9490 15.17424019  3919
TRANSPORTER-15AD        
1 66693U 25276AD  25358.41411959 -.00377980  00000+0 -23255-1 0  9992
2 66693  97.4377  69.9523 0024596  76.4684 283.9284 15.11586624  3899
YAM-9                   
1 66694U 25276AE  25356.62913608  .00013577  00000+0  67893-3 0  9997
2 66694  97.4414  68.2259 0001516 262.5734  97.5327 15.17554197  3625
IRIDE FM1               
1 66695U 25276AF  25358.85952018  .00012484  00000+0  61139-3 0  9996
2 66695  97.4395  70.4381 0001619 142.6345 217.5002 15.18301326  3961
IRIDE FM2               
1 66696U 25276AG  25358.87362597  .00009593  00000+0  48237-3 0  9997
2 66696  97.4385  70.4147 0002484 258.2908 101.8047 15.17447208  3964
IRIDE FM3               
1 66697U 25276AH  25358.86080760  .00011155  00000+0  54831-3 0  9990
2 66697  97.4386  70.4322 0001411 148.1109 212.0211 15.18202691  3964
IRIDE FM4               
1 66698U 25276AJ  25358.33336806 -.00051456  00000+0 -25918-2 0  9991
2 66698  97.4387  69.8832 0002816 252.4343  33.0288 15.17393336  1300
IRIDE FM5               
1 66699U 25276AK  25358.87433369  .00011193  00000+0  56256-3 0  9995
2 66699  97.4400  70.4194 0003201 247.0373 113.0523 15.17420412  3969
IRIDE FM6               
1 66700U 25276AL  25358.92597452  .00119169  00000+0  57013-2 0  9991
2 66700  97.4418  70.5094 0003628 181.5083 178.6141 15.18439341  3970
IRIDE FM7               
1 66701U 25276AM  25358.80839534  .00077692  00000+0  38410-2 0  9993
2 66701  97.4409  70.3593 0003330 246.5595 113.5289 15.17502301  3958
IRIDE FM8               
1 66702U 25276AN  25358.87417035  .00010603  00000+0  53305-3 0  9999
2 66702  97.4395  70.4175 0002844 254.2277 105.8643 15.17426936  3960
PELICAN-6               
1 66703U 25276AP  25358.91670139 -.00027209  00000+0 -13657-2 0  9998
2 66703  97.4406  70.4649 0000998 220.8328  17.9636 15.17363480  5112
FLOCK 4H-1              
1 66704U 25276AQ  25358.86173929  .00006723  00000+0  33274-3 0  9992
2 66704  97.4379  70.4265 0002270 168.0019 192.1269 15.18117804  3968
